[{"OBJECT_NAME":"STARLINK-34663","OBJECT_ID":"2025-150T","EPOCH":"2026-03-09T14:35:13.289280","MEAN_MOTION":14.98334733,"ECCENTRICITY":0.0003609,"INCLINATION":70.0019,"RA_OF_ASC_NODE":134.7012,"ARG_OF_PERICENTER":271.2876,"MEAN_ANOMALY":88.7869,"EPHEMERIS_TYPE":0,"CLASSIFICATION_TYPE":"U","NORAD_CAT_ID":64807,"ELEMENT_SET_NO":999,"REV_AT_EPOCH":3650,"BSTAR":0.0001693,"MEAN_MOTION_DOT":1.928e-5,"MEAN_MOTION_DDOT":0},{"OBJECT_NAME":"CZ-6A DEB","OBJECT_ID":"2024-140UU","EPOCH":"2026-03-09T14:59:25.616256","MEAN_MOTION":14.76478592,"ECCENTRICITY":0.0108839,"INCLINATION":89.1464,"RA_OF_ASC_NODE":292.2182,"ARG_OF_PERICENTER":203.0446,"MEAN_ANOMALY":156.5875,"EPHEMERIS_TYPE":0,"CLASSIFICATION_TYPE":"U","NORAD_CAT_ID":61331,"ELEMENT_SET_NO":999,"REV_AT_EPOCH":8105,"BSTAR":0.0015527,"MEAN_MOTION_DOT":0.00011943,"MEAN_MOTION_DDOT":0}]
